     2.10           NAVIGATION                              RINEX VERSION / TYPE
fic2rin                                 08/03/2008 04:18:03 PGM / RUN BY / DATE
                                                            END OF HEADER
28 08  8  2 16  0  0.0 -.215731561184D-04 -.341060513165D-12  .000000000000D+00
     .160000000000D+02 -.110750000000D+03  .443447042778D-08 -.501429973474D+00
    -.587478280067D-05  .138689279556D-01  .854209065437D-05  .515372511101D+04
     .576000000000D+06 -.134110450745D-06  .292382044906D+01  .158324837685D-06
     .964648633510D+00  .217125000000D+03 -.209300691114D+01 -.832498962638D-08
    -.455733268834D-09  .100000000000D+01  .149000000000D+04  .000000000000D+00
     .240000000000D+01  .000000000000D+00 -.102445483208D-07  .160000000000D+02
     .568806000000D+06  .400000000000D+01
29 08  8  2 16  0  0.0 -.406610779464D-04  .568434188608D-12  .000000000000D+00
     .320000000000D+02  .183437500000D+02  .441625538333D-08  .171831943776D+01
     .795349478722D-06  .365965324454D-02  .117048621178D-04  .515362664413D+04
     .576000000000D+06  .763684511185D-07 -.231904664359D+01 -.558793544769D-08
     .959840204649D+00  .150343750000D+03 -.138573873607D+01 -.788354266691D-08
     .486448833975D-09  .100000000000D+01  .149000000000D+04  .000000000000D+00
     .240000000000D+01  .000000000000D+00 -.884756445885D-08  .320000000000D+02
     .568806000000D+06  .400000000000D+01
31 08  8  2 16  0  0.0 -.250032171607D-04  .000000000000D+00  .000000000000D+00
     .470000000000D+02  .192812500000D+02  .493841999073D-08  .237185124512D+01
     .110082328320D-05  .664176838472D-02  .609084963799D-06  .515378742981D+04
     .576000000000D+06  .931322574615D-07  .184528875159D+01 -.912696123123D-07
     .968457314397D+00  .368062500000D+03 -.121981614308D+01 -.853499837408D-08
    -.964325882329D-11  .100000000000D+01  .149000000000D+04  .000000000000D+00
     .240000000000D+01  .000000000000D+00 -.130385160446D-07  .470000000000D+02
     .568806000000D+06  .400000000000D+01
32 08  8  2 16  0  0.0  .311182346195D-03  .227373675443D-11  .000000000000D+00
     .400000000000D+02 -.267500000000D+02  .407374111624D-08 -.283003020797D+01
    -.146776437759D-05  .138999429764D-01  .109560787678D-04  .515380855942D+04
     .576000000000D+06  .113621354103D-06 -.160781034273D+00  .912696123123D-07
     .968490424622D+00  .163812500000D+03 -.130285383389D+01 -.755245744731D-08
    -.462519265784D-09  .100000000000D+01  .149000000000D+04  .000000000000D+00
     .240000000000D+01  .000000000000D+00 -.279396772385D-08  .400000000000D+02
     .568806000000D+06  .400000000000D+01
13 08  8  2 15 59 44.0  .266161747277D-03  .136424205266D-11  .000000000000D+00
     .700000000000D+01  .117937500000D+03  .368765360557D-08 -.134767625846D+01
     .637397170067D-05  .378721358720D-02  .986643135548D-05  .515360266876D+04
     .575984000000D+06 -.931322574615D-08  .849979267174D+00  .577419996262D-07
     .995572351779D+00  .212875000000D+03  .152379706842D+01 -.764710424687D-08
     .419660337680D-09  .100000000000D+01  .149000000000D+04  .000000000000D+00
     .240000000000D+01  .000000000000D+00 -.111758708954D-07  .700000000000D+01
     .570186000000D+06  .400000000000D+01
 7 08  8  2 15 59 44.0  .388920307159D-05  .454747350886D-11  .000000000000D+00
     .230000000000D+02  .163125000000D+02  .504806741513D-08  .279528802335D+01
     .929459929466D-06  .201234780252D-02  .577419996262D-06  .515370271492D+04
     .575984000000D+06 -.428408384323D-07  .184883518978D+01  .152736902237D-06
     .962984012675D+00  .369812500000D+03  .265136356505D+01 -.863285959325D-08
     .137148569931D-09  .100000000000D+01  .149000000000D+04  .000000000000D+00
     .240000000000D+01  .000000000000D+00 -.107102096081D-07  .230000000000D+02
     .573636000000D+06  .400000000000D+01
 7 08  8  2 17 59 44.0  .392226502299D-05  .454747350886D-11  .000000000000D+00
     .240000000000D+02  .266562500000D+02  .502949521295D-08 -.243783625725D+01
     .153481960297D-05  .201439519878D-02  .127963721752D-05  .515369883728D+04
     .583184000000D+06 -.763684511185D-07  .184877312548D+01  .372529029846D-07
     .962985437557D+00  .359343750000D+03  .265147093154D+01 -.857035698977D-08
     .177150236161D-09  .100000000000D+01  .149000000000D+04  .000000000000D+00
     .240000000000D+01  .000000000000D+00 -.107102096081D-07  .240000000000D+02
     .576006000000D+06  .400000000000D+01
13 08  8  2 17 59 44.0  .266171526164D-03  .136424205266D-11  .000000000000D+00
     .800000000000D+01  .111718750000D+03  .362300805569D-08 -.297791114138D+00
     .559352338314D-05  .378692569211D-02  .104382634163D-04  .515360054016D+04
     .583184000000D+06 -.279396772385D-07  .849923973259D+00  .204890966415D-07
     .995575311262D+00  .201968750000D+03  .152413164364D+01 -.767531970787D-08
     .428946438769D-09  .100000000000D+01  .149000000000D+04  .000000000000D+00
     .240000000000D+01  .000000000000D+00 -.111758708954D-07  .800000000000D+01
     .576006000000D+06  .400000000000D+01
 2 08  8  2 18  0  0.0  .197710935026D-03 -.272848410532D-11  .000000000000D+00
     .460000000000D+02  .943750000000D+01  .531736434671D-08 -.822709027350D+00
     .586733222008D-06  .874310208019D-02  .422820448875D-05  .515374934769D+04
     .583200000000D+06 -.102445483208D-06 -.130269992906D+01 -.169500708580D-06
     .942503718400D+00  .291531250000D+03  .261883370171D+01 -.859571518890D-08
     .135005623526D-09  .100000000000D+01  .149000000000D+04  .000000000000D+00
     .240000000000D+01  .000000000000D+00 -.172294676304D-07  .460000000000D+02
     .576006000000D+06  .400000000000D+01
 3 08  8  2 18  0  0.0  .264189206064D-03  .522959453519D-11  .000000000000D+00
     .590000000000D+02  .331250000000D+01  .509699802471D-08 -.117511708201D+01
     .128522515297D-06  .109118516557D-01  .123064965010D-04  .515369615746D+04
     .583200000000D+06  .309199094772D-06 -.244745698293D+01  .152736902237D-06
     .926181996981D+00  .122906250000D+03  .829365940980D+00 -.820355599675D-08
     .315013121561D-09  .100000000000D+01  .149000000000D+04  .000000000000D+00
     .340000000000D+01  .000000000000D+00 -.419095158577D-08  .590000000000D+02
     .576006000000D+06  .400000000000D+01
 4 08  8  2 18  0  0.0 -.131818931550D-03 -.102318153949D-10  .000000000000D+00
     .650000000000D+02  .134687500000D+02  .538843873582D-08  .192256653601D+01
     .700354576111D-06  .818953395355D-02  .425800681114D-05  .515355377197D+04
     .583200000000D+06 -.119209289551D-06 -.128391731464D+01  .707805156708D-07
     .941795970337D+00  .292781250000D+03  .383478424616D+00 -.858607193007D-08
    -.221437795202D-10  .100000000000D+01  .149000000000D+04  .000000000000D+00
     .240000000000D+01  .000000000000D+00 -.605359673500D-08  .650000000000D+02
     .576006000000D+06  .400000000000D+01
 5 08  8  2 18  0  0.0 -.359407160431D-03 -.154614099301D-10  .000000000000D+00
     .570000000000D+02 -.127468750000D+03  .497699302602D-08  .156287746053D+01
    -.683031976223D-05  .914498895872D-02  .784359872341D-05  .515372122955D+04
     .583200000000D+06 -.225380063057D-06  .280381551620D+01 -.141561031342D-06
     .943564328156D+00  .220468750000D+03  .125020286655D+01 -.837784897104D-08
    -.378944355982D-09  .100000000000D+01  .149000000000D+04  .000000000000D+00
     .240000000000D+01  .000000000000D+00 -.419095158577D-08  .570000000000D+02
     .576006000000D+06  .400000000000D+01
 6 08  8  2 18  0  0.0  .165410339832D-03  .204636307899D-11  .000000000000D+00
     .800000000000D+02  .628125000000D+01  .498199323430D-08  .144745533653D+01
     .316649675369D-07  .585211266298D-02  .124163925648D-04  .515372667694D+04
     .583200000000D+06 -.130385160446D-07 -.238230389428D+01 -.838190317154D-07
     .933677083673D+00  .126031250000D+03 -.161276600990D+01 -.818355516363D-08
     .354657630057D-09  .100000000000D+01  .149000000000D+04  .000000000000D+00
     .240000000000D+01  .000000000000D+00 -.465661287308D-08  .800000000000D+02
     .576006000000D+06  .400000000000D+01
 8 08  8  2 18  0  0.0 -.164289027452D-03 -.147792889038D-11  .000000000000D+00
     .220000000000D+02  .150000000000D+02  .451161649836D-08  .302664144146D+01
     .953674316406D-06  .104018278653D-01  .104680657387D-05  .515372588348D+04
     .583200000000D+06 -.180676579475D-06  .190297446561D+01  .100582838058D-06
     .984170113721D+00  .373812500000D+03  .288845075891D+01 -.820462746995D-08
     .161792453591D-09  .100000000000D+01  .149000000000D+04  .000000000000D+00
     .240000000000D+01  .000000000000D+00 -.372529029846D-08  .220000000000D+02
     .576006000000D+06  .400000000000D+01
 9 08  8  2 18  0  0.0  .815698876977D-05  .170530256582D-11  .000000000000D+00
     .150000000000D+02  .224062500000D+02  .467233747875D-08  .264262682225D+01
     .929459929466D-06  .201686769724D-01  .337138772011D-06  .515366204453D+04
     .583200000000D+06  .206753611565D-06  .181256132701D+01 -.234693288803D-06
     .971993724286D+00  .375718750000D+03  .142762019644D+01 -.814712507475D-08
     .439304013061D-10  .100000000000D+01  .149000000000D+04  .000000000000D+00
     .340000000000D+01  .000000000000D+00 -.558793544769D-08  .150000000000D+02
     .576006000000D+06  .400000000000D+01
10 08  8  2 18  0  0.0 -.346871092916D-05 -.341060513165D-12  .000000000000D+00
     .720000000000D+02 -.260937500000D+02  .427910681340D-08  .568014092981D-01
    -.124052166939D-05  .797554897144D-02  .103432685137D-04  .515368296814D+04
     .583200000000D+06  .447034835815D-07 -.220357547965D+00  .122934579849D-06
     .962913327399D+00  .181812500000D+03  .560048793697D+00 -.802390565645D-08
    -.479305679291D-09  .100000000000D+01  .149000000000D+04  .000000000000D+00
     .240000000000D+01  .000000000000D+00 -.232830643654D-08  .720000000000D+02
     .576006000000D+06  .400000000000D+01
